HERMES-2                
1 63243U 25052AK  26068.92847372  .00009456  00000+0  34839-3 0  9999
2 63243  97.4004 324.4926 0006340  99.4160 260.7796 15.28021069 54859
STARLINK-36140          
1 67034U 25294E   26068.93827218  .00032550  00000+0  11874-2 0  9991
2 67034  43.0008  36.9792 0001233 266.4315  93.6396 15.27574492 14837
